COMMENT,ORIGINATOR,NORAD_CAT_ID,OBJECT_NAME,OBJECT_TYPE,CLASSIFICATION_TYPE,INTLDES,EPOCH,EPOCH_MICROSECONDS,MEAN_MOTION,ECCENTRICITY,INCLINATION,RA_OF_ASC_NODE,ARG_OF_PERICENTER,MEAN_ANOMALY,EPHEMERIS_TYPE,ELEMENT_SET_NO,REV_AT_EPOCH,BSTAR,MEAN_MOTION_DOT,MEAN_MOTION_DDOT,FILE,TLE_LINE0,TLE_LINE1,TLE_LINE2,OBJECT_ID,OBJECT_NUMBER,SEMIMAJOR_AXIS,PERIOD,APOGEE,PERIGEE,DECAYED
"GENERATED VIA SPACETRACK.ORG API","18 SPCS","48888","SPACEBEE-103","PAYLOAD","U","21059K","2023-06-20 22:28:09","381216","15.32234039","0.0006081","97.5963","309.0504","248.2934","111.766","0","999","10997","0.0010934","0.0003408","0","3938741","0 SPACEBEE-103","1 48888U 21059K   23171.93621969  .00034080  00000-0  10934-2 0  9996","2 48888  97.5963 309.0504 0006081 248.2934 111.7660 15.32234039109975","2021-059K","48888","6847.286","93.980","473.314","464.987","0"
"GENERATED VIA SPACETRACK.ORG API","18 SPCS","48888","SPACEBEE-103","PAYLOAD","U","21059K","2023-06-21 07:52:23","818080","15.32260602","0.0006085","97.5963","309.4523","246.9812","113.0788","0","999","11003","0.001089","0.0003397","0","3939133","0 SPACEBEE-103","1 48888U 21059K   23172.32805345  .00033970  00000-0  10890-2 0  9990","2 48888  97.5963 309.4523 0006085 246.9812 113.0788 15.32260602110034","2021-059K","48888","6847.206","93.979","473.238","464.905","0"
"GENERATED VIA SPACETRACK.ORG API","18 SPCS","48888","SPACEBEE-103","PAYLOAD","U","21059K","2023-06-22 04:14:53","124000","15.32314908","0.0006094","97.5965","310.3231","243.9395","116.1219","0","999","11016","0.0010299","0.00032169","0","3939559","0 SPACEBEE-103","1 48888U 21059K   23173.17700375  .00032169  00000-0  10299-2 0  9993","2 48888  97.5965 310.3231 0006094 243.9395 116.1219 15.32314908110162","2021-059K","48888","6847.045","93.975","473.082","464.737","0"
"GENERATED VIA SPACETRACK.ORG API","18 SPCS","48888","SPACEBEE-103","PAYLOAD","U","21059K","2023-06-23 08:27:29","43072","15.32400349","0.0006181","97.5965","311.5291","240.1046","119.9582","0","999","11034","0.0011323","0.00035487","0","3940762","0 SPACEBEE-103","1 48888U 21059K   23174.35241948  .00035487  00000-0  11323-2 0  9995","2 48888  97.5965 311.5291 0006181 240.1046 119.9582 15.32400349110349","2021-059K","48888","6846.790","93.970","472.887","464.423","0"
"GENERATED VIA SPACETRACK.ORG API","18 SPCS","48888","SPACEBEE-103","PAYLOAD","U","21059K","2023-06-24 15:48:02","149344","15.32502609","0.0006227","97.5965","312.8692","236.034","124.031","0","999","11054","0.0012984","0.00040864","0","3941881","0 SPACEBEE-103","1 48888U 21059K   23175.65835821  .00040864  00000-0  12984-2 0  9997","2 48888  97.5965 312.8692 0006227 236.0340 124.0310 15.32502609110540","2021-059K","48888","6846.486","93.964","472.614","464.087","0"
"GENERATED VIA SPACETRACK.ORG API","18 SPCS","48888","SPACEBEE-103","PAYLOAD","U","21059K","2023-06-25 21:34:26","541984","15.32600364","0.0006259","97.5962","314.1424","231.6114","128.4566","0","999","11073","0.001156","0.00036464","0","3943064","0 SPACEBEE-103","1 48888U 21059K   23176.89891831  .00036464  00000-0  11560-2 0  9997","2 48888  97.5962 314.1424 0006259 231.6114 128.4566 15.32600364110739","2021-059K","48888","6846.194","93.958","472.344","463.774","0"
"GENERATED VIA SPACETRACK.ORG API","18 SPCS","48888","SPACEBEE-103","PAYLOAD","U","21059K","2023-06-27 08:02:46","798368","15.32699374","0.0006345","97.5958","315.6165","227.1644","132.9065","0","999","11095","0.0010432","0.00032985","0","3944217","0 SPACEBEE-103","1 48888U 21059K   23178.33526387  .00032985  00000-0  10432-2 0  9990","2 48888  97.5958 315.6165 0006345 227.1644 132.9065 15.32699374110953","2021-059K","48888","6845.900","93.952","472.108","463.421","0"
"GENERATED VIA SPACETRACK.ORG API","18 SPCS","48888","SPACEBEE-103","PAYLOAD","U","21059K","2023-06-28 09:06:56","681280","15.3276609","0.0006364","97.5958","316.6885","223.3607","136.7134","0","999","11111","0.00096559","0.0003058","0","3944973","0 SPACEBEE-103","1 48888U 21059K   23179.37982270  .00030580  00000-0  96559-3 0  9996","2 48888  97.5958 316.6885 0006364 223.3607 136.7134 15.32766090111119","2021-059K","48888","6845.701","93.948","471.922","463.209","0"
"GENERATED VIA SPACETRACK.ORG API","18 SPCS","48888","SPACEBEE-103","PAYLOAD","U","21059K","2023-06-29 16:27:03","830400","15.32843556","0.000642","97.5957","318.0287","219.0882","140.9896","0","999","11131","0.00098775","0.00031363","0","3945987","0 SPACEBEE-103","1 48888U 21059K   23180.68546100  .00031363  00000-0  98775-3 0  9992","2 48888  97.5957 318.0287 0006420 219.0882 140.9896 15.32843556111317","2021-059K","48888","6845.470","93.943","471.730","462.940","0"
"GENERATED VIA SPACETRACK.ORG API","18 SPCS","48888","SPACEBEE-103","PAYLOAD","U","21059K","2023-06-30 22:13:05","37600","15.32920281","0.0006495","97.596","319.3018","215.1457","144.9357","0","999","11150","0.00086128","0.00027389","0","3946584","0 SPACEBEE-103","1 48888U 21059K   23181.92575275  .00027389  00000-0  86128-3 0  9997","2 48888  97.5960 319.3018 0006495 215.1457 144.9357 15.32920281111502","2021-059K","48888","6845.242","93.938","471.553","462.661","0"
"GENERATED VIA SPACETRACK.ORG API","18 SPCS","48888","SPACEBEE-103","PAYLOAD","U","21059K","2023-07-02 08:41:00","555072","15.32991983","0.0006555","97.5966","320.7762","210.1556","149.9309","0","999","11172","0.00075613","0.00024079","0","3947703","0 SPACEBEE-103","1 48888U 21059K   23183.36181198  .00024079  00000-0  75613-3 0  9994","2 48888  97.5966 320.7762 0006555 210.1556 149.9309 15.32991983111725","2021-059K","48888","6845.028","93.934","471.380","462.406","0"
"GENERATED VIA SPACETRACK.ORG API","18 SPCS","48888","SPACEBEE-103","PAYLOAD","U","21059K","2023-07-03 08:10:54","26976","15.33046252","0.0006608","97.597","321.7814","207.2749","152.8147","0","999","11187","0.00083618","0.00026692","0","3948831","0 SPACEBEE-103","1 48888U 21059K   23184.34090309  .00026692  00000-0  83618-3 0  9993","2 48888  97.5970 321.7814 0006608 207.2749 152.8147 15.33046252111879","2021-059K","48888","6844.867","93.931","471.255","462.209","0"
"GENERATED VIA SPACETRACK.ORG API","18 SPCS","48888","SPACEBEE-103","PAYLOAD","U","21059K","2023-07-04 09:14:43","746720","15.33104842","0.0006634","97.5975","322.8538","203.5356","156.5583","0","999","11203","0.00081822","0.00026163","0","3949383","0 SPACEBEE-103","1 48888U 21059K   23185.38522855  .00026163  00000-0  81822-3 0  9992","2 48888  97.5975 322.8538 0006634 203.5356 156.5583 15.33104842112035","2021-059K","48888","6844.692","93.927","471.098","462.017","0"
"GENERATED VIA SPACETRACK.ORG API","18 SPCS","48888","SPACEBEE-103","PAYLOAD","U","21059K","2023-07-05 15:00:27","154656","15.3317125","0.0006702","97.5978","324.1274","199.6539","160.4446","0","999","11222","0.000814","0.00026082","0","3950449","0 SPACEBEE-103","1 48888U 21059K   23186.62531429  .00026082  00000-0  81400-3 0  9999","2 48888  97.5978 324.1274 0006702 199.6539 160.4446 15.33171250112224","2021-059K","48888","6844.495","93.923","470.947","461.773","0"
"GENERATED VIA SPACETRACK.ORG API","18 SPCS","48888","SPACEBEE-103","PAYLOAD","U","21059K","2023-07-07 03:02:00","813984","15.33260132","0.0006758","97.5981","325.6699","195.1533","164.9507","0","999","11245","0.0010334","0.00033259","0","3951661","0 SPACEBEE-103","1 48888U 21059K   23188.12639831  .00033259  00000-0  10334-2 0  9993","2 48888  97.5981 325.6699 0006758 195.1533 164.9507 15.33260132112451","2021-059K","48888","6844.230","93.918","470.721","461.470","0"
"GENERATED VIA SPACETRACK.ORG API","18 SPCS","48888","SPACEBEE-103","PAYLOAD","U","21059K","2023-07-08 08:47:32","868960","15.333448","0.0006771","97.5978","326.9441","190.8774","169.2322","0","999","11264","0.0010735","0.00034651","0","3952786","0 SPACEBEE-103","1 48888U 21059K   23189.36635265  .00034651  00000-0  10735-2 0  9999","2 48888  97.5978 326.9441 0006771 190.8774 169.2322 15.33344800112649","2021-059K","48888","6843.978","93.912","470.477","461.209","0"
"GENERATED VIA SPACETRACK.ORG API","18 SPCS","48888","SPACEBEE-103","PAYLOAD","U","21059K","2023-07-09 08:17:06","994176","15.33399569","0.0006813","97.5976","327.9498","188.1572","171.956","0","999","11279","0.00091176","0.00029449","0","3953700","0 SPACEBEE-103","1 48888U 21059K   23190.34521984  .00029449  00000-0  91176-3 0  9999","2 48888  97.5976 327.9498 0006813 188.1572 171.9560 15.33399569112795","2021-059K","48888","6843.815","93.909","470.343","461.018","0"
"GENERATED VIA SPACETRACK.ORG API","18 SPCS","48888","SPACEBEE-103","PAYLOAD","U","21059K","2023-07-10 15:36:27","921888","15.3347056","0.0006867","97.5973","329.2911","184.0788","176.0399","0","999","11299","0.000868","0.0002809","0","3954766","0 SPACEBEE-103","1 48888U 21059K   23191.65032317  .00028090  00000-0  86800-3 0  9990","2 48888  97.5973 329.2911 0006867 184.0788 176.0399 15.33470560112999","2021-059K","48888","6843.604","93.905","470.169","460.770","0"
"GENERATED VIA SPACETRACK.ORG API","18 SPCS","48888","SPACEBEE-103","PAYLOAD","U","21059K","2023-07-12 08:19:28","547616","15.33578092","0.0006875","97.597","331.0349","179.6453","180.4795","0","999","11325","0.0010082","0.00032771","0","3956120","0 SPACEBEE-103","1 48888U 21059K   23193.34685819  .00032771  00000-0  10082-2 0  9998","2 48888  97.5970 331.0349 0006875 179.6453 180.4795 15.33578092113258","2021-059K","48888","6843.284","93.898","469.854","460.444","0"
"GENERATED VIA SPACETRACK.ORG API","18 SPCS","48888","SPACEBEE-103","PAYLOAD","U","21059K","2023-07-13 15:38:35","397312","15.33666921","0.0006846","97.5972","332.376","175.0423","185.0888","0","999","11345","0.0009507","0.00030976","0","3956975","0 SPACEBEE-103","1 48888U 21059K   23194.65179858  .00030976  00000-0  95070-3 0  9990","2 48888  97.5972 332.3760 0006846 175.0423 185.0888 15.33666921113451","2021-059K","48888","6843.020","93.893","469.570","460.200","0"
